[{"OBJECT_NAME":"STARLINK-35399","OBJECT_ID":"2025-232AA","EPOCH":"2026-03-09T12:05:37.811040","MEAN_MOTION":15.30208536,"ECCENTRICITY":0.00013308,"INCLINATION":53.159,"RA_OF_ASC_NODE":105.0077,"ARG_OF_PERICENTER":72.2005,"MEAN_ANOMALY":287.9141,"EPHEMERIS_TYPE":0,"CLASSIFICATION_TYPE":"U","NORAD_CAT_ID":66029,"ELEMENT_SET_NO":999,"REV_AT_EPOCH":2340,"BSTAR":0.00070610345,"MEAN_MOTION_DOT":0.00020617,"MEAN_MOTION_DDOT":0},{"OBJECT_NAME":"STARLINK-35431","OBJECT_ID":"2025-232AB","EPOCH":"2026-03-09T08:48:24.327936","MEAN_MOTION":15.30199693,"ECCENTRICITY":0.00012547,"INCLINATION":53.1592,"RA_OF_ASC_NODE":105.5703,"ARG_OF_PERICENTER":111.6918,"MEAN_ANOMALY":248.4216,"EPHEMERIS_TYPE":0,"CLASSIFICATION_TYPE":"U","NORAD_CAT_ID":66030,"ELEMENT_SET_NO":999,"REV_AT_EPOCH":2338,"BSTAR":0.0004342078,"MEAN_MOTION_DOT":0.00012522,"MEAN_MOTION_DDOT":0},{"OBJECT_NAME":"STARLINK-35326","OBJECT_ID":"2025-232AC","EPOCH":"2026-03-09T08:54:30.405600","MEAN_MOTION":15.30139809,"ECCENTRICITY":0.00014393,"INCLINATION":53.159,"RA_OF_ASC_NODE":105.5958,"ARG_OF_PERICENTER":87.734,"MEAN_ANOMALY":272.3826,"EPHEMERIS_TYPE":0,"CLASSIFICATION_TYPE":"U","NORAD_CAT_ID":66031,"ELEMENT_SET_NO":999,"REV_AT_EPOCH":2338,"BSTAR":1.0775683e-5,"MEAN_MOTION_DOT":-4.1e-7,"MEAN_MOTION_DDOT":0},{"OBJECT_NAME":"STARLINK-35311","OBJECT_ID":"2025-232AD","EPOCH":"2026-03-09T19:37:39.891648","MEAN_MOTION":15.30200109,"ECCENTRICITY":0.000179,"INCLINATION":53.1599,"RA_OF_ASC_NODE":103.4047,"ARG_OF_PERICENTER":89.3413,"MEAN_ANOMALY":270.7793,"EPHEMERIS_TYPE":0,"CLASSIFICATION_TYPE":"U","NORAD_CAT_ID":66032,"ELEMENT_SET_NO":999,"REV_AT_EPOCH":2345,"BSTAR":0.0006091,"MEAN_MOTION_DOT":0.00017724,"MEAN_MOTION_DDOT":0},{"OBJECT_NAME":"STARLINK-35552","OBJECT_ID":"2025-235A","EPOCH":"2026-03-09T17:50:26.513088","MEAN_MOTION":15.30195657,"ECCENTRICITY":0.0001363,"INCLINATION":53.1597,"RA_OF_ASC_NODE":242.5692,"ARG_OF_PERICENTER":25.0175,"MEAN_ANOMALY":335.0891,"EPHEMERIS_TYPE":0,"CLASSIFICATION_TYPE":"U","NORAD_CAT_ID":66058,"ELEMENT_SET_NO":999,"REV_AT_EPOCH":2296,"BSTAR":0.001028,"MEAN_MOTION_DOT":0.00030206,"MEAN_MOTION_DDOT":0},{"OBJECT_NAME":"STARLINK-35560","OBJECT_ID":"2025-235B","EPOCH":"2026-03-09T18:27:40.806720","MEAN_MOTION":15.30206315,"ECCENTRICITY":8.93e-5,"INCLINATION":53.1581,"RA_OF_ASC_NODE":244.9018,"ARG_OF_PERICENTER":128.9631,"MEAN_ANOMALY":231.1449,"EPHEMERIS_TYPE":0,"CLASSIFICATION_TYPE":"U","NORAD_CAT_ID":66059,"ELEMENT_SET_NO":999,"REV_AT_EPOCH":2293,"BSTAR":0.00086895,"MEAN_MOTION_DOT":0.0002547,"MEAN_MOTION_DDOT":0},{"OBJECT_NAME":"STARLINK-35558","OBJECT_ID":"2025-235C","EPOCH":"2026-03-09T17:31:36.985152","MEAN_MOTION":15.30199235,"ECCENTRICITY":0.0001054,"INCLINATION":53.1589,"RA_OF_ASC_NODE":245.3684,"ARG_OF_PERICENTER":102.5501,"MEAN_ANOMALY":257.5617,"EPHEMERIS_TYPE":0,"CLASSIFICATION_TYPE":"U","NORAD_CAT_ID":66060,"ELEMENT_SET_NO":999,"REV_AT_EPOCH":2292,"BSTAR":0.00044392,"MEAN_MOTION_DOT":0.00012811,"MEAN_MOTION_DDOT":0},{"OBJECT_NAME":"STARLINK-35566","OBJECT_ID":"2025-235D","EPOCH":"2026-03-09T18:00:19.546272","MEAN_MOTION":15.30202439,"ECCENTRICITY":9.46e-5,"INCLINATION":53.1598,"RA_OF_ASC_NODE":244.7815,"ARG_OF_PERICENTER":58.9602,"MEAN_ANOMALY":301.1491,"EPHEMERIS_TYPE":0,"CLASSIFICATION_TYPE":"U","NORAD_CAT_ID":66061,"ELEMENT_SET_NO":999,"REV_AT_EPOCH":2293,"BSTAR":0.00073036,"MEAN_MOTION_DOT":0.00021336,"MEAN_MOTION_DDOT":0},{"OBJECT_NAME":"STARLINK-35421","OBJECT_ID":"2025-235E","EPOCH":"2026-03-09T17:13:22.932192","MEAN_MOTION":15.30194608,"ECCENTRICITY":6.51e-5,"INCLINATION":53.1566,"RA_OF_ASC_NODE":245.2899,"ARG_OF_PERICENTER":92.7123,"MEAN_ANOMALY":267.3952,"EPHEMERIS_TYPE":0,"CLASSIFICATION_TYPE":"U","NORAD_CAT_ID":66062,"ELEMENT_SET_NO":999,"REV_AT_EPOCH":2292,"BSTAR":0.0013206,"MEAN_MOTION_DOT":0.00038951,"MEAN_MOTION_DDOT":0},{"OBJECT_NAME":"STARLINK-35562","OBJECT_ID":"2025-235F","EPOCH":"2026-03-09T19:17:49.959744","MEAN_MOTION":15.3018588,"ECCENTRICITY":0.0001102,"INCLINATION":53.1595,"RA_OF_ASC_NODE":245.1175,"ARG_OF_PERICENTER":87.9056,"MEAN_ANOMALY":272.2071,"EPHEMERIS_TYPE":0,"CLASSIFICATION_TYPE":"U","NORAD_CAT_ID":66063,"ELEMENT_SET_NO":999,"REV_AT_EPOCH":2293,"BSTAR":0.0009316,"MEAN_MOTION_DOT":0.00027321,"MEAN_MOTION_DDOT":0},{"OBJECT_NAME":"STARLINK-35542","OBJECT_ID":"2025-235G","EPOCH":"2026-03-09T17:16:25.155840","MEAN_MOTION":15.30221861,"ECCENTRICITY":0.0001241,"INCLINATION":53.157,"RA_OF_ASC_NODE":245.3063,"ARG_OF_PERICENTER":97.4324,"MEAN_ANOMALY":262.6818,"EPHEMERIS_TYPE":0,"CLASSIFICATION_TYPE":"U","NORAD_CAT_ID":66064,"ELEMENT_SET_NO":999,"REV_AT_EPOCH":2292,"BSTAR":0.0015886,"MEAN_MOTION_DOT":0.00047021,"MEAN_MOTION_DDOT":0},{"OBJECT_NAME":"STARLINK-35375","OBJECT_ID":"2025-235H","EPOCH":"2026-03-09T19:14:47.323104","MEAN_MOTION":15.30194058,"ECCENTRICITY":0.0001109,"INCLINATION":53.1598,"RA_OF_ASC_NODE":245.1064,"ARG_OF_PERICENTER":95.7344,"MEAN_ANOMALY":264.3784,"EPHEMERIS_TYPE":0,"CLASSIFICATION_TYPE":"U","NORAD_CAT_ID":66065,"ELEMENT_SET_NO":999,"REV_AT_EPOCH":2293,"BSTAR":0.0012785,"MEAN_MOTION_DOT":0.0003769,"MEAN_MOTION_DDOT":0},{"OBJECT_NAME":"STARLINK-35179","OBJECT_ID":"2025-235J","EPOCH":"2026-03-09T17:22:31.092672","MEAN_MOTION":15.30188859,"ECCENTRICITY":0.0003183,"INCLINATION":53.1574,"RA_OF_ASC_NODE":245.3292,"ARG_OF_PERICENTER":161.0072,"MEAN_ANOMALY":199.1048,"EPHEMERIS_TYPE":0,"CLASSIFICATION_TYPE":"U","NORAD_CAT_ID":66066,"ELEMENT_SET_NO":999,"REV_AT_EPOCH":2292,"BSTAR":0.0011595,"MEAN_MOTION_DOT":0.00034131,"MEAN_MOTION_DDOT":0},{"OBJECT_NAME":"STARLINK-35401","OBJECT_ID":"2025-235K","EPOCH":"2026-03-09T17:04:15.937248","MEAN_MOTION":15.30199024,"ECCENTRICITY":9.85e-5,"INCLINATION":53.158,"RA_OF_ASC_NODE":245.2487,"ARG_OF_PERICENTER":61.4112,"MEAN_ANOMALY":298.6988,"EPHEMERIS_TYPE":0,"CLASSIFICATION_TYPE":"U","NORAD_CAT_ID":66067,"ELEMENT_SET_NO":999,"REV_AT_EPOCH":2289,"BSTAR":0.0006984,"MEAN_MOTION_DOT":0.00020382,"MEAN_MOTION_DDOT":0},{"OBJECT_NAME":"STARLINK-35422","OBJECT_ID":"2025-235L","EPOCH":"2026-03-09T18:18:33.699456","MEAN_MOTION":15.30201802,"ECCENTRICITY":5.3e-5,"INCLINATION":53.1586,"RA_OF_ASC_NODE":244.8591,"ARG_OF_PERICENTER":62.6705,"MEAN_ANOMALY":297.435,"EPHEMERIS_TYPE":0,"CLASSIFICATION_TYPE":"U","NORAD_CAT_ID":66068,"ELEMENT_SET_NO":999,"REV_AT_EPOCH":2290,"BSTAR":0.0014966,"MEAN_MOTION_DOT":0.00044233,"MEAN_MOTION_DDOT":0},{"OBJECT_NAME":"STARLINK-35279","OBJECT_ID":"2025-235M","EPOCH":"2026-03-09T18:09:26.696736","MEAN_MOTION":15.3019866,"ECCENTRICITY":9.85e-5,"INCLINATION":53.1594,"RA_OF_ASC_NODE":244.8193,"ARG_OF_PERICENTER":91.4323,"MEAN_ANOMALY":268.6791,"EPHEMERIS_TYPE":0,"CLASSIFICATION_TYPE":"U","NORAD_CAT_ID":66069,"ELEMENT_SET_NO":999,"REV_AT_EPOCH":2293,"BSTAR":0.0010327,"MEAN_MOTION_DOT":0.00030351,"MEAN_MOTION_DDOT":0},{"OBJECT_NAME":"STARLINK-35295","OBJECT_ID":"2025-235N","EPOCH":"2026-03-09T17:34:39.271872","MEAN_MOTION":15.30203136,"ECCENTRICITY":0.0001052,"INCLINATION":53.1601,"RA_OF_ASC_NODE":245.3746,"ARG_OF_PERICENTER":114.8618,"MEAN_ANOMALY":245.2492,"EPHEMERIS_TYPE":0,"CLASSIFICATION_TYPE":"U","NORAD_CAT_ID":66070,"ELEMENT_SET_NO":999,"REV_AT_EPOCH":2292,"BSTAR":0.00062053,"MEAN_MOTION_DOT":0.00018066,"MEAN_MOTION_DDOT":0},{"OBJECT_NAME":"STARLINK-35323","OBJECT_ID":"2025-235P","EPOCH":"2026-03-09T19:25:15.541824","MEAN_MOTION":15.30182085,"ECCENTRICITY":0.0001197,"INCLINATION":53.1599,"RA_OF_ASC_NODE":244.4353,"ARG_OF_PERICENTER":81.9408,"MEAN_ANOMALY":278.1728,"EPHEMERIS_TYPE":0,"CLASSIFICATION_TYPE":"U","NORAD_CAT_ID":66071,"ELEMENT_SET_NO":999,"REV_AT_EPOCH":2294,"BSTAR":0.0013712,"MEAN_MOTION_DOT":0.00040449,"MEAN_MOTION_DDOT":0},{"OBJECT_NAME":"STARLINK-35299","OBJECT_ID":"2025-235Q","EPOCH":"2026-03-09T17:11:51.762048","MEAN_MOTION":15.30191359,"ECCENTRICITY":8.67e-5,"INCLINATION":53.1563,"RA_OF_ASC_NODE":245.2827,"ARG_OF_PERICENTER":116.1157,"MEAN_ANOMALY":243.9933,"EPHEMERIS_TYPE":0,"CLASSIFICATION_TYPE":"U","NORAD_CAT_ID":66072,"ELEMENT_SET_NO":999,"REV_AT_EPOCH":2292,"BSTAR":0.0012634,"MEAN_MOTION_DOT":0.00037237,"MEAN_MOTION_DDOT":0},{"OBJECT_NAME":"STARLINK-35274","OBJECT_ID":"2025-235R","EPOCH":"2026-03-09T17:36:10.367712","MEAN_MOTION":15.30212157,"ECCENTRICITY":0.0001139,"INCLINATION":53.1599,"RA_OF_ASC_NODE":245.3852,"ARG_OF_PERICENTER":125.2737,"MEAN_ANOMALY":234.837,"EPHEMERIS_TYPE":0,"CLASSIFICATION_TYPE":"U","NORAD_CAT_ID":66073,"ELEMENT_SET_NO":999,"REV_AT_EPOCH":2292,"BSTAR":0.00085006,"MEAN_MOTION_DOT":0.00024911,"MEAN_MOTION_DDOT":0},{"OBJECT_NAME":"STARLINK-35321","OBJECT_ID":"2025-235S","EPOCH":"2026-03-09T17:27:03.302784","MEAN_MOTION":15.30206764,"ECCENTRICITY":8.8e-5,"INCLINATION":53.1585,"RA_OF_ASC_NODE":245.3458,"ARG_OF_PERICENTER":143.6365,"MEAN_ANOMALY":216.4696,"EPHEMERIS_TYPE":0,"CLASSIFICATION_TYPE":"U","NORAD_CAT_ID":66074,"ELEMENT_SET_NO":999,"REV_AT_EPOCH":2292,"BSTAR":0.00081423,"MEAN_MOTION_DOT":0.00023839,"MEAN_MOTION_DDOT":0},{"OBJECT_NAME":"STARLINK-35131","OBJECT_ID":"2025-235T","EPOCH":"2026-03-09T16:59:42.373248","MEAN_MOTION":15.30199624,"ECCENTRICITY":0.0001068,"INCLINATION":53.1578,"RA_OF_ASC_NODE":245.2262,"ARG_OF_PERICENTER":46.1174,"MEAN_ANOMALY":313.9915,"EPHEMERIS_TYPE":0,"CLASSIFICATION_TYPE":"U","NORAD_CAT_ID":66075,"ELEMENT_SET_NO":999,"REV_AT_EPOCH":2292,"BSTAR":0.00055998,"MEAN_MOTION_DOT":0.00016262,"MEAN_MOTION_DDOT":0},{"OBJECT_NAME":"STARLINK-34801","OBJECT_ID":"2025-235U","EPOCH":"2026-03-09T17:17:55.407552","MEAN_MOTION":15.30186072,"ECCENTRICITY":8.43e-5,"INCLINATION":53.1569,"RA_OF_ASC_NODE":245.3063,"ARG_OF_PERICENTER":50.5693,"MEAN_ANOMALY":309.5382,"EPHEMERIS_TYPE":0,"CLASSIFICATION_TYPE":"U","NORAD_CAT_ID":66076,"ELEMENT_SET_NO":999,"REV_AT_EPOCH":2292,"BSTAR":0.00028274,"MEAN_MOTION_DOT":8.02e-5,"MEAN_MOTION_DDOT":0}]
